{
  "type": "FeatureCollection",
  "features": [
    {
      "type": "Feature",
      "properties": {
        "norad_id": 34540,
        "name": "IRIDIUM 33 DEB",
        "group": "iridium-33-debris",
        "lat": 25.808038764806035,
        "lon": -55.901974217066275,
        "alt_km": 643.588800314983,
        "timestamp": "2025-12-24T07:45:06.583910+00:00",
        "meta_object_name": "IRIDIUM 33 DEB",
        "meta_object_id": "1997-051JH",
        "meta_epoch": "2025-12-22T19:58:08.744160",
        "meta_mean_motion": 14.75512106,
        "meta_eccentricity": 0.00179406,
        "meta_inclination": 86.3119,
        "meta_ra_of_asc_node": 302.992,
        "meta_arg_of_pericenter": 125.3836,
        "meta_mean_anomaly": 266.2203,
        "meta_ephemeris_type": 0,
        "meta_classification_type": "U",
        "meta_norad_cat_id": 34540,
        "meta_element_set_no": 999,
        "meta_rev_at_epoch": 89170,
        "meta_bstar": 0.0015814186,
        "meta_mean_motion_dot": 0.00010821,
        "meta_mean_motion_ddot": 0,
        "tle_line1": "1 34540U 97051JH  25356.83204565  .00010821  00000+0  15814-2 0  9994",
        "tle_line2": "2 34540  86.3119 302.9920 0017940 125.3836 266.2203 14.75512106891708"
      },
      "geometry": {
        "type": "Point",
        "coordinates": [
          -55.901974217066275,
          25.808038764806035
        ]
      }
    },
    {
      "type": "Feature",
      "properties": {
        "norad_id": 34648,
        "name": "IRIDIUM 33 DEB",
        "group": "iridium-33-debris",
        "lat": 38.830446220722024,
        "lon": -79.81893810881603,
        "alt_km": 943.062298946812,
        "timestamp": "2025-12-24T07:45:06.583921+00:00",
        "meta_object_name": "IRIDIUM 33 DEB",
        "meta_object_id": "1997-051JZ",
        "meta_epoch": "2025-12-23T17:57:25.669728",
        "meta_mean_motion": 14.11798527,
        "meta_eccentricity": 0.01789357,
        "meta_inclination": 86.3896,
        "meta_ra_of_asc_node": 277.5003,
        "meta_arg_of_pericenter": 264.3134,
        "meta_mean_anomaly": 93.7623,
        "meta_ephemeris_type": 0,
        "meta_classification_type": "U",
        "meta_norad_cat_id": 34648,
        "meta_element_set_no": 999,
        "meta_rev_at_epoch": 85116,
        "meta_bstar": 0.0063256678,
        "meta_mean_motion_dot": 0.00013439,
        "meta_mean_motion_ddot": 0,
        "tle_line1": "1 34648U 97051JZ  25357.74821377  .00013439  00000+0  63257-2 0  9992",
        "tle_line2": "2 34648  86.3896 277.5003 0178935 264.3134  93.7623 14.11798527851163"
      },
      "geometry": {
        "type": "Point",
        "coordinates": [
          -79.81893810881603,
          38.830446220722024
        ]
      }
    },
    {
      "type": "Feature",
      "properties": {
        "norad_id": 34651,
        "name": "IRIDIUM 33 DEB",
        "group": "iridium-33-debris",
        "lat": -31.197804510652848,
        "lon": 133.39287228932736,
        "alt_km": 908.169239813983,
        "timestamp": "2025-12-24T07:45:06.583941+00:00",
        "meta_object_name": "IRIDIUM 33 DEB",
        "meta_object_id": "1997-051KC",
        "meta_epoch": "2025-12-19T16:44:48.420096",
        "meta_mean_motion": 14.25922062,
        "meta_eccentricity": 0.01422464,
        "meta_inclination": 86.2827,
        "meta_ra_of_asc_node": 137.6175,
        "meta_arg_of_pericenter": 181.9677,
        "meta_mean_anomaly": 178.0974,
        "meta_ephemeris_type": 0,
        "meta_classification_type": "U",
        "meta_norad_cat_id": 34651,
        "meta_element_set_no": 999,
        "meta_rev_at_epoch": 85995,
        "meta_bstar": 0.0022061693,
        "meta_mean_motion_dot": 5.865e-05,
        "meta_mean_motion_ddot": 0,
        "tle_line1": "1 34651U 97051KC  25353.69778264  .00005865  00000+0  22062-2 0  9995",
        "tle_line2": "2 34651  86.2827 137.6175 0142246 181.9677 178.0974 14.25922062859957"
      },
      "geometry": {
        "type": "Point",
        "coordinates": [
          133.39287228932736,
          -31.197804510652848
        ]
      }
    },
    {
      "type": "Feature",
      "properties": {
        "norad_id": 34652,
        "name": "IRIDIUM 33 DEB",
        "group": "iridium-33-debris",
        "lat": 85.15173057224861,
        "lon": 23.98115709460661,
        "alt_km": 696.4080120400731,
        "timestamp": "2025-12-24T07:45:06.583959+00:00",
        "meta_object_name": "IRIDIUM 33 DEB",
        "meta_object_id": "1997-051KD",
        "meta_epoch": "2025-12-23T23:25:38.355168",
        "meta_mean_motion": 14.62155088,
        "meta_eccentricity": 0.0025453,
        "meta_inclination": 86.332,
        "meta_ra_of_asc_node": 334.9977,
        "meta_arg_of_pericenter": 256.9837,
        "meta_mean_anomaly": 165.3312,
        "meta_ephemeris_type": 0,
        "meta_classification_type": "U",
        "meta_norad_cat_id": 34652,
        "meta_element_set_no": 999,
        "meta_rev_at_epoch": 88648,
        "meta_bstar": 0.00095749422,
        "meta_mean_motion_dot": 4.859e-05,
        "meta_mean_motion_ddot": 0,
        "tle_line1": "1 34652U 97051KD  25357.97613837  .00004859  00000+0  95749-3 0  9990",
        "tle_line2": "2 34652  86.3320 334.9977 0025453 256.9837 165.3312 14.62155088886480"
      },
      "geometry": {
        "type": "Point",
        "coordinates": [
          23.98115709460661,
          85.15173057224861
        ]
      }
    },
    {
      "type": "Feature",
      "properties": {
        "norad_id": 34690,
        "name": "IRIDIUM 33 DEB",
        "group": "iridium-33-debris",
        "lat": 18.447939554880918,
        "lon": 33.16738042030274,
        "alt_km": 703.2835570009775,
        "timestamp": "2025-12-24T07:45:06.583971+00:00",
        "meta_object_name": "IRIDIUM 33 DEB",
        "meta_object_id": "1997-051KM",
        "meta_epoch": "2025-12-23T02:05:55.177152",
        "meta_mean_motion": 14.55131538,
        "meta_eccentricity": 0.00096335,
        "meta_inclination": 86.3772,
        "meta_ra_of_asc_node": 32.4934,
        "meta_arg_of_pericenter": 354.9815,
        "meta_mean_anomaly": 35.335,
        "meta_ephemeris_type": 0,
        "meta_classification_type": "U",
        "meta_norad_cat_id": 34690,
        "meta_element_set_no": 999,
        "meta_rev_at_epoch": 88245,
        "meta_bstar": 0.00039542617,
        "meta_mean_motion_dot": 1.728e-05,
        "meta_mean_motion_ddot": 0,
        "tle_line1": "1 34690U 97051KM  25357.08744418  .00001728  00000+0  39543-3 0  9996",
        "tle_line2": "2 34690  86.3772  32.4934 0009633 354.9815  35.3350 14.55131538882450"
      },
      "geometry": {
        "type": "Point",
        "coordinates": [
          33.16738042030274,
          18.447939554880918
        ]
      }
    },
    {
      "type": "Feature",
      "properties": {
        "norad_id": 34693,
        "name": "IRIDIUM 33 DEB",
        "group": "iridium-33-debris",
        "lat": -83.27016432226358,
        "lon": -95.1390320766654,
        "alt_km": 484.1111670997716,
        "timestamp": "2025-12-24T07:45:06.583981+00:00",
        "meta_object_name": "IRIDIUM 33 DEB",
        "meta_object_id": "1997-051KQ",
        "meta_epoch": "2025-12-23T19:41:55.330656",
        "meta_mean_motion": 15.30604195,
        "meta_eccentricity": 0.00103314,
        "meta_inclination": 86.3059,
        "meta_ra_of_asc_node": 298.3092,
        "meta_arg_of_pericenter": 33.2484,
        "meta_mean_anomaly": 356.9991,
        "meta_ephemeris_type": 0,
        "meta_classification_type": "U",
        "meta_norad_cat_id": 34693,
        "meta_element_set_no": 999,
        "meta_rev_at_epoch": 89084,
        "meta_bstar": 0.0045104698,
        "meta_mean_motion_dot": 0.00135771,
        "meta_mean_motion_ddot": 0,
        "tle_line1": "1 34693U 97051KQ  25357.82077929  .00135771  00000+0  45105-2 0  9993",
        "tle_line2": "2 34693  86.3059 298.3092 0010331  33.2484 356.9991 15.30604195890848"
      },
      "geometry": {
        "type": "Point",
        "coordinates": [
          -95.1390320766654,
          -83.27016432226358
        ]
      }
    },
    {
      "type": "Feature",
      "properties": {
        "norad_id": 34696,
        "name": "IRIDIUM 33 DEB",
        "group": "iridium-33-debris",
        "lat": -44.859471381500114,
        "lon": -154.06130347486697,
        "alt_km": 687.3365684793189,
        "timestamp": "2025-12-24T07:45:06.583992+00:00",
        "meta_object_name": "IRIDIUM 33 DEB",
        "meta_object_id": "1997-051KT",
        "meta_epoch": "2025-12-23T20:04:25.434336",
        "meta_mean_motion": 14.6559156,
        "meta_eccentricity": 0.00738952,
        "meta_inclination": 86.1849,
        "meta_ra_of_asc_node": 22.3578,
        "meta_arg_of_pericenter": 130.1788,
        "meta_mean_anomaly": 48.2218,
        "meta_ephemeris_type": 0,
        "meta_classification_type": "U",
        "meta_norad_cat_id": 34696,
        "meta_element_set_no": 999,
        "meta_rev_at_epoch": 86835,
        "meta_bstar": 0.0041353445,
        "meta_mean_motion_dot": 0.00023449,
        "meta_mean_motion_ddot": 0,
        "tle_line1": "1 34696U 97051KT  25357.83640549  .00023449  00000+0  41353-2 0  9990",
        "tle_line2": "2 34696  86.1849  22.3578 0073895 130.1788  48.2218 14.65591560868350"
      },
      "geometry": {
        "type": "Point",
        "coordinates": [
          -154.06130347486697,
          -44.859471381500114
        ]
      }
    }
  ]
}